ISS (ZARYA)             
1 25544U 98067A   26226.43871707  .00004555  00000+0  89427-4 0  9997
2 25544  51.6329  11.7957 0007493  45.9133 314.2471 15.49439755580788
POISK                   
1 36086U 09060A   26226.43871707  .00004555  00000+0  89427-4 0  9995
2 36086  51.6329  11.7957 0007493  45.9133 314.2471 15.49439755580859
CSS (TIANHE)            
1 48274U 21035A   26224.98627525  .00000101  00000+0  54127-5 0  9991
2 48274  41.4709 337.2096 0001079 250.4973 109.5748 15.58975796302033
ISS (NAUKA)             
1 49044U 21066A   26226.43871707  .00004555  00000+0  89427-4 0  9993
2 49044  51.6329  11.7957 0007493  45.9133 314.2471 15.49439755580891
